[{"OBJECT_NAME":"STARLINK-36473","OBJECT_ID":"2026-002W","EPOCH":"2026-03-09T18:38:30.151968","MEAN_MOTION":15.27591602,"ECCENTRICITY":0.00016319,"INCLINATION":43.0009,"RA_OF_ASC_NODE":324.6501,"ARG_OF_PERICENTER":269.827,"MEAN_ANOMALY":90.2395,"EPHEMERIS_TYPE":0,"CLASSIFICATION_TYPE":"U","NORAD_CAT_ID":67325,"ELEMENT_SET_NO":999,"REV_AT_EPOCH":1125,"BSTAR":0.00097584716,"MEAN_MOTION_DOT":0.00026698,"MEAN_MOTION_DDOT":0},{"OBJECT_NAME":"KSLV-II R\/B","OBJECT_ID":"2023-072H","EPOCH":"2026-03-09T20:13:26.441760","MEAN_MOTION":15.33109439,"ECCENTRICITY":0.00241884,"INCLINATION":97.4991,"RA_OF_ASC_NODE":274.152,"ARG_OF_PERICENTER":318.2938,"MEAN_ANOMALY":41.646,"EPHEMERIS_TYPE":0,"CLASSIFICATION_TYPE":"U","NORAD_CAT_ID":56750,"ELEMENT_SET_NO":999,"REV_AT_EPOCH":15516,"BSTAR":0.00028309532,"MEAN_MOTION_DOT":9.057e-5,"MEAN_MOTION_DDOT":0}]
